#dV2023  2 11 22  0  0.00000000    1682       CTS   FIT  GFZ
## 2248 597600.00000000    30.00000000 59986 0.9166666666667
+    1   L64  0  0  0  0  0  0  0  0  0  0  0  0  0  0  0  0
+          0  0  0  0  0  0  0  0  0  0  0  0  0  0  0  0  0
+          0  0  0  0  0  0  0  0  0  0  0  0  0  0  0  0  0
+          0  0  0  0  0  0  0  0  0  0  0  0  0  0  0  0  0
+          0  0  0  0  0  0  0  0  0  0  0  0  0  0  0  0  0
++         0  0  0  0  0  0  0  0  0  0  0  0  0  0  0  0  0
++         0  0  0  0  0  0  0  0  0  0  0  0  0  0  0  0  0
++         0  0  0  0  0  0  0  0  0  0  0  0  0  0  0  0  0
++         0  0  0  0  0  0  0  0  0  0  0  0  0  0  0  0  0
++         0  0  0  0  0  0  0  0  0  0  0  0  0  0  0  0  0
%c L  cc GPS ccc cccc cccc cccc cccc ccccc ccccc ccccc ccccc
%c cc cc ccc ccc cccc cccc cccc cccc ccccc ccccc ccccc ccccc
%f  0.0000000  0.000000000  0.00000000000  0.000000000000000
%f  0.0000000  0.000000000  0.00000000000  0.000000000000000
%i    0    0    0    0      0      0      0      0         0
%i    0    0    0    0      0      0      0      0         0
/* CCCCCCCCCCCCCCCCCCCCCCCCCCCCCCCCCCCCCCCCCCCCCCCCCCCCCCCCCCCCCCCCCCCCCCCCCCCCC
/* C                             GFZ RSO-ORBIT                                 C
/* C DOI: https://doi.org/10.5880/GFZ_ORBIT/RSO/L64_G_v02                      C
/* C                                                                           C
/* C DORIS        RMS: not applicable                                          C
/* C GNSS-E Code  RMS: not applicable                                          C
/* C GNSS-E Phase RMS: not applicable                                          C
/* C GNSS-G Code  RMS:  48.884 [cm]   Obs.acc.:     13278 Obs.eli.:      1144  C
/* C GNSS-G Phase RMS:   4.152 [mm]   Obs.acc.:     13278 Obs.eli.:      1144  C
/* C SLR          RMS:   1.309 [cm]   Obs.acc.:        48 Obs.eli.:         0  C
/* C                                                                           C
/* CCCCCCCCCCCCCCCCCCCCCCCCCCCCCCCCCCCCCCCCCCCCCCCCCCCCCCCCCCCCCCCCCCCCCCCCCCCCC
*  2023  2 12  7 21  0.00000000
PL64   2566.339235  -5700.438349  -2845.690869  11411.538153
VL64 -15714.791096  27384.509370 -69399.178155 999999.999999
*  2023  2 12  7 21 30.00000000
PL64   2517.973565  -5615.053387  -3052.270322  11411.997543
VL64 -16524.398962  29534.026425 -68307.785342 999999.999999
*  2023  2 12  7 22  0.00000000
PL64   2467.220755  -5523.264062  -3255.462205  11412.457134
VL64 -17306.094342  31653.673429 -67141.018591 999999.999999
*  2023  2 12  7 22 30.00000000
PL64   2414.165630  -5425.163666  -3455.042422  11412.916746
VL64 -18059.159725  33741.002813 -65900.242910 999999.999999
*  2023  2 12  7 23  0.00000000
PL64   2358.895100  -5320.852773  -3650.791095  11413.376605
VL64 -18782.923181  35793.606237 -64586.902361 999999.999999
*  2023  2 12  7 23 30.00000000
PL64   2301.498022  -5210.439124  -3842.492790  11413.836735
VL64 -19476.757878  37809.114967 -63202.518669 999999.999999
*  2023  2 12  7 24  0.00000000
PL64   2242.065065  -5094.037505  -4029.936760  11414.296778
VL64 -20140.082090  39785.203074 -61748.690637 999999.999999
*  2023  2 12  7 24 30.00000000
PL64   2180.688577  -4971.769607  -4212.917161  11414.756694
VL64 -20772.359494  41719.591244 -60227.091833 999999.999999
*  2023  2 12  7 25  0.00000000
PL64   2117.462447  -4843.763889  -4391.233283  11415.216577
VL64 -21373.099749  43610.049519 -58639.467541 999999.999999
*  2023  2 12  7 25 30.00000000
PL64   2052.481962  -4710.155421  -4564.689753  11415.676566
VL64 -21941.858266  45454.398795 -56987.631938 999999.999999
*  2023  2 12  7 26  0.00000000
PL64   1985.843680  -4571.085734  -4733.096743  11416.136613
VL64 -22478.235748  47250.512625 -55273.466828 999999.999999
*  2023  2 12  7 26 30.00000000
PL64   1917.645284  -4426.702653  -4896.270170  11416.596699
VL64 -22981.878849  48996.320511 -53498.919742 999999.999999
*  2023  2 12  7 27  0.00000000
PL64   1847.985449  -4277.160130  -5054.031887  11417.056687
VL64 -23452.480648  50689.810524 -51666.000347 999999.999999
*  2023  2 12  7 27 30.00000000
PL64   1776.963703  -4122.618062  -5206.209866  11417.516616
VL64 -23889.780453  52329.030842 -49776.777469 999999.999999
*  2023  2 12  7 28  0.00000000
PL64   1704.680284  -3963.242107  -5352.638372  11417.976418
VL64 -24293.563942  53912.091483 -47833.376611 999999.999999
*  2023  2 12  7 28 30.00000000
PL64   1631.236005  -3799.203501  -5493.158126  11418.436031
VL64 -24663.663086  55437.165966 -45837.977277 999999.999999
*  2023  2 12  7 29  0.00000000
PL64   1556.732115  -3630.678861  -5627.616467  11418.895154
VL64 -24999.955084  56902.492961 -43792.810455 999999.999999
*  2023  2 12  7 29 30.00000000
PL64   1481.270162  -3457.849988  -5755.867500  11419.353610
VL64 -25302.361754  58306.377692 -41700.156284 999999.999999
*  2023  2 12  7 30  0.00000000
PL64   1404.951864  -3280.903667  -5877.772243  11419.812017
VL64 -25570.850004  59647.193043 -39562.341865 999999.999999
*  2023  2 12  7 30 30.00000000
PL64   1327.878970  -3100.031459  -5993.198761  11420.270662
VL64 -25805.431630  60923.381557 -37381.739300 999999.999999
*  2023  2 12  7 31  0.00000000
PL64   1250.153126  -2915.429492  -6102.022303  11420.729759
VL64 -26006.162557  62133.458193 -35160.762796 999999.999999
*  2023  2 12  7 31 30.00000000
PL64   1171.875747  -2727.298236  -6204.125415  11421.188826
VL64 -26173.142182  63276.011519 -32901.864789 999999.999999
*  2023  2 12  7 32  0.00000000
PL64   1093.147884  -2535.842286  -6299.398058  11421.646371
VL64 -26306.512695  64349.703985 -30607.533862 999999.999999
*  2023  2 12  7 32 30.00000000
PL64   1014.070097  -2341.270137  -6387.737708  11422.103504
VL64 -26406.458225  65353.274072 -28280.292940 999999.999999
*  2023  2 12  7 33  0.00000000
PL64    934.742336  -2143.793950  -6469.049458  11422.561621
VL64 -26473.203486  66285.538117 -25922.695661 999999.999999
*  2023  2 12  7 33 30.00000000
PL64    855.263814  -1943.629322  -6543.246106  11423.020354
VL64 -26507.013047  67145.390679 -23537.323317 999999.999999
*  2023  2 12  7 34  0.00000000
PL64    775.732890  -1740.995047  -6610.248229  11423.478190
VL64 -26508.191185  67931.805043 -21126.782410 999999.999999
*  2023  2 12  7 34 30.00000000
PL64    696.246956  -1536.112879  -6669.984260  11423.935727
VL64 -26477.081197  68643.834607 -18693.702462 999999.999999
*  2023  2 12  7 35  0.00000000
PL64    616.902311  -1329.207291  -6722.390553  11424.393975
VL64 -26414.064725  69280.615116 -16240.732409 999999.999999
*  2023  2 12  7 35 30.00000000
PL64    537.794056  -1120.505223  -6767.411428  11424.852759
VL64 -26319.560708  69841.364403 -13770.535695 999999.999999
*  2023  2 12  7 36  0.00000000
PL64    459.015981   -910.235840  -6804.999216  11425.311880
VL64 -26194.023840  70325.380607 -11285.788332 999999.999999
*  2023  2 12  7 36 30.00000000
PL64    380.660458   -698.630296  -6835.114295  11425.771247
VL64 -26037.943465  70732.042326  -8789.178248 999999.999999
*  2023  2 12  7 37  0.00000000
PL64    302.818341   -485.921484  -6857.725121  11426.230798
VL64 -25851.842859  71060.809292  -6283.404062 999999.999999
*  2023  2 12  7 37 30.00000000
PL64    225.578865   -272.343795  -6872.808263  11426.690666
VL64 -25636.278753  71311.224110  -3771.173758 999999.999999
*  2023  2 12  7 38  0.00000000
PL64    149.029544    -58.132866  -6880.348421  11427.150663
VL64 -25391.840474  71482.914833  -1255.200830 999999.999999
*  2023  2 12  7 38 30.00000000
PL64     73.256077    156.474680  -6880.338439  11427.610793
VL64 -25119.148329  71575.594566   1261.800751 999999.999999
*  2023  2 12  7 39  0.00000000
PL64     -1.657741    371.241484  -6872.779301  11428.071085
VL64 -24818.852509  71589.059684   3777.118312 999999.999999
*  2023  2 12  7 39 30.00000000
PL64    -75.630113    585.929701  -6857.680124  11428.531459
VL64 -24491.632750  71523.190313   6288.041419 999999.999999
*  2023  2 12  7 40  0.00000000
PL64   -148.581321    800.301253  -6835.058153  11428.992161
VL64 -24138.197370  71377.951082   8791.864212 999999.999999
*  2023  2 12  7 40 30.00000000
PL64   -220.433817   1014.118084  -6804.938738  11429.452994
VL64 -23759.282285  71153.391749  11285.887500 999999.999999
*  2023  2 12  7 41  0.00000000
PL64   -291.112297   1227.142416  -6767.355317  11429.913789
VL64 -23355.650212  70849.648297  13767.421752 999999.999999
*  2023  2 12  7 41 30.00000000
PL64   -360.543787   1439.137009  -6722.349374  11430.374566
VL64 -22928.088598  70466.943160  16233.790987 999999.999999
*  2023  2 12  7 42  0.00000000
PL64   -428.657708   1649.865419  -6669.970396  11430.835556
VL64 -22477.407405  70005.584328  18682.335691 999999.999999
*  2023  2 12  7 42 30.00000000
PL64   -495.385944   1859.092252  -6610.275826  11431.296437
VL64 -22004.438636  69465.964742  21110.414661 999999.999999
*  2023  2 12  7 43  0.00000000
PL64   -560.662906   2066.583421  -6543.330995  11431.756928
VL64 -21510.036015  68848.562051  23515.408036 999999.999999
*  2023  2 12  7 43 30.00000000
PL64   -624.425599   2272.106399  -6469.209060  11432.217350
VL64 -20995.072855  68153.937477  25894.720072 999999.999999
*  2023  2 12  7 44  0.00000000
PL64   -686.613672   2475.430466  -6387.990928  11432.677720
VL64 -20460.439886  67382.735612  28245.779544 999999.999999
*  2023  2 12  7 44 30.00000000
PL64   -747.169475   2676.326963  -6299.765182  11433.138007
VL64 -19907.044841  66535.686180  30566.040901 999999.999999
*  2023  2 12  7 45  0.00000000
PL64   -806.038104   2874.569549  -6204.627997  11433.598416
VL64 -19335.812397  65613.604925  32852.988703 999999.999999
*  2023  2 12  7 45 30.00000000
PL64   -863.167452   3069.934457  -6102.683044  11434.059581
VL64 -18747.682708  64617.391530  35104.142798 999999.999999
*  2023  2 12  7 46  0.00000000
PL64   -918.508255   3262.200743  -5994.041378  11434.520571
VL64 -18143.608964  63548.026306  37317.060258 999999.999999
EOF
